{
  "type": "FeatureCollection",
  "features": [
    {
      "type": "Feature",
      "properties": {
        "norad_id": 62876,
        "name": "QZS-6 (QZSS/PRN 200)",
        "group": "gnss",
        "lat": -0.02702358018147773,
        "lon": -101.45947772881019,
        "alt_km": 35778.097350451695,
        "timestamp": "2025-12-12T05:47:29.015100+00:00",
        "meta_object_name": "QZS-6 (QZSS/PRN 200)",
        "meta_object_id": "2025-023A",
        "meta_epoch": "2025-12-11T22:51:38.668032",
        "meta_mean_motion": 1.00274739,
        "meta_eccentricity": 0.00017267,
        "meta_inclination": 0.0292,
        "meta_ra_of_asc_node": 51.5999,
        "meta_arg_of_pericenter": 217.3118,
        "meta_mean_anomaly": 245.3902,
        "meta_ephemeris_type": 0,
        "meta_classification_type": "U",
        "meta_norad_cat_id": 62876,
        "meta_element_set_no": 999,
        "meta_rev_at_epoch": 308,
        "meta_bstar": 0,
        "meta_mean_motion_dot": -2.25e-06,
        "meta_mean_motion_ddot": 0,
        "tle_line1": "1 62876U 25023A   25345.95253088 -.00000225  00000+0  00000+0 0  9998",
        "tle_line2": "2 62876   0.0292  51.5999 0001726 217.3118 245.3902  1.00274739  3080"
      },
      "geometry": {
        "type": "Point",
        "coordinates": [
          -101.45947772881019,
          -0.02702358018147773
        ]
      }
    },
    {
      "type": "Feature",
      "properties": {
        "norad_id": 63130,
        "name": "COSMOS 2584 (704K)",
        "group": "gnss",
        "lat": -61.96894526979826,
        "lon": -39.65595954292347,
        "alt_km": 19121.652637570205,
        "timestamp": "2025-12-12T05:47:29.015112+00:00",
        "meta_object_name": "COSMOS 2584 (704K)",
        "meta_object_id": "2025-042A",
        "meta_epoch": "2025-12-08T03:39:29.178720",
        "meta_mean_motion": 2.13102925,
        "meta_eccentricity": 0.0007602,
        "meta_inclination": 64.9737,
        "meta_ra_of_asc_node": 79.3022,
        "meta_arg_of_pericenter": 215.9611,
        "meta_mean_anomaly": 144.0025,
        "meta_ephemeris_type": 0,
        "meta_classification_type": "U",
        "meta_norad_cat_id": 63130,
        "meta_element_set_no": 999,
        "meta_rev_at_epoch": 597,
        "meta_bstar": 0,
        "meta_mean_motion_dot": -1.2e-07,
        "meta_mean_motion_ddot": 0,
        "tle_line1": "1 63130U 25042A   25342.15242105 -.00000012  00000+0  00000+0 0  9994",
        "tle_line2": "2 63130  64.9737  79.3022 0007602 215.9611 144.0025  2.13102925  5976"
      },
      "geometry": {
        "type": "Point",
        "coordinates": [
          -39.65595954292347,
          -61.96894526979826
        ]
      }
    },
    {
      "type": "Feature",
      "properties": {
        "norad_id": 64202,
        "name": "GPS BIII-8  (PRN 21)",
        "group": "gnss",
        "lat": 55.11006340082848,
        "lon": 129.06503187827542,
        "alt_km": 20187.85874309167,
        "timestamp": "2025-12-12T05:47:29.015124+00:00",
        "meta_object_name": "GPS BIII-8  (PRN 21)",
        "meta_object_id": "2025-116A",
        "meta_epoch": "2025-12-11T15:10:15.119616",
        "meta_mean_motion": 2.00558341,
        "meta_eccentricity": 0.00055101,
        "meta_inclination": 55.105,
        "meta_ra_of_asc_node": 38.6853,
        "meta_arg_of_pericenter": 307.7864,
        "meta_mean_anomaly": 62.5671,
        "meta_ephemeris_type": 0,
        "meta_classification_type": "U",
        "meta_norad_cat_id": 64202,
        "meta_element_set_no": 999,
        "meta_rev_at_epoch": 411,
        "meta_bstar": 0,
        "meta_mean_motion_dot": -9.6e-07,
        "meta_mean_motion_ddot": 0,
        "tle_line1": "1 64202U 25116A   25345.63211944 -.00000096  00000+0  00000+0 0  9992",
        "tle_line2": "2 64202  55.1050  38.6853 0005510 307.7864  62.5671  2.00558341  4112"
      },
      "geometry": {
        "type": "Point",
        "coordinates": [
          129.06503187827542,
          55.11006340082848
        ]
      }
    },
    {
      "type": "Feature",
      "properties": {
        "norad_id": 65590,
        "name": "COSMOS 2596 (708K)",
        "group": "gnss",
        "lat": 13.959687566460412,
        "lon": -31.781334763163,
        "alt_km": 19116.244721384985,
        "timestamp": "2025-12-12T05:47:29.015135+00:00",
        "meta_object_name": "COSMOS 2596 (708K)",
        "meta_object_id": "2025-206B",
        "meta_epoch": "2025-12-10T13:06:28.122048",
        "meta_mean_motion": 2.13100337,
        "meta_eccentricity": 0.00140136,
        "meta_inclination": 64.7453,
        "meta_ra_of_asc_node": 321.5499,
        "meta_arg_of_pericenter": 305.8933,
        "meta_mean_anomaly": 208.9804,
        "meta_ephemeris_type": 0,
        "meta_classification_type": "U",
        "meta_norad_cat_id": 65590,
        "meta_element_set_no": 999,
        "meta_rev_at_epoch": 189,
        "meta_bstar": 0,
        "meta_mean_motion_dot": -5.2e-07,
        "meta_mean_motion_ddot": 0,
        "tle_line1": "1 65590U 25206B   25344.54615882 -.00000052  00000+0  00000+0 0  9993",
        "tle_line2": "2 65590  64.7453 321.5499 0014013 305.8933 208.9804  2.13100337  1898"
      },
      "geometry": {
        "type": "Point",
        "coordinates": [
          -31.781334763163,
          13.959687566460412
        ]
      }
    }
  ]
}